start=new Date('2022-07-19T00:00:00.000Z').valueOf();
sats=[{"DECAY_DATE":null,"REV_AT_EPOCH":"12489","REF_FRAME":"TEME","RCS_SIZE":"LARGE","CLASSIFICATION_TYPE":"U","GP_ID":"208404504","BSTAR":"0.00018950000000","NORAD_CAT_ID":"45565","MEAN_ANOMALY":"276.9339","MEAN_MOTION_DDOT":"0.0000000000000","TIME_SYSTEM":"UTC","EPOCH":"2022-07-18T14:38:06.123840","MEAN_MOTION_DOT":"0.00002543","LAUNCH_DATE":"2020-04-22","ECCENTRICITY":"0.00014040","SEMIMAJOR_AXIS":"6925.326","CENTER_NAME":"EARTH","EPHEMERIS_TYPE":"0","SITE":"AFETR","PERIAPSIS":"546.219","PERIOD":"95.592","RA_OF_ASC_NODE":"297.5794","TLE_LINE1":"1 45565U 20025AL  22199.60979310  .00002543  00000-0  18950-3 0  9992","OBJECT_TYPE":"PAYLOAD","OBJECT_NAME":"STARLINK-1357","TLE_LINE2":"2 45565  53.0545 297.5794 0001404  83.1809 276.9339 15.06407317124897","ELEMENT_SET_NO":"999","APOAPSIS":"548.163","INCLINATION":"53.0545","ARG_OF_PERICENTER":"83.1809","FILE":"3517175","MEAN_ELEMENT_THEORY":"SGP4","OBJECT_ID":"2020-025AL","COUNTRY_CODE":"US","MEAN_MOTION":"15.06407317"},{"TLE_LINE2":"2 45566  53.0555 297.5245 0001400  79.9483 280.1663 15.06392934124892","TLE_LINE1":"1 45566U 20025AM  22199.62454128 -.00000762  00000-0 -32247-4 0  9999","OBJECT_NAME":"STARLINK-1358","OBJECT_TYPE":"PAYLOAD","MEAN_MOTION":"15.06392934","COUNTRY_CODE":"US","INCLINATION":"53.0555","FILE":"3517175","ARG_OF_PERICENTER":"79.9483","OBJECT_ID":"2020-025AM","MEAN_ELEMENT_THEORY":"SGP4","ELEMENT_SET_NO":"999","APOAPSIS":"548.205","NORAD_CAT_ID":"45566","MEAN_ANOMALY":"280.1663","GP_ID":"208404741","CLASSIFICATION_TYPE":"U","BSTAR":"-0.00003224700000","REV_AT_EPOCH":"12489","DECAY_DATE":null,"RCS_SIZE":"LARGE","REF_FRAME":"TEME","PERIAPSIS":"546.266","PERIOD":"95.593","RA_OF_ASC_NODE":"297.5245","EPHEMERIS_TYPE":"0","SITE":"AFETR","LAUNCH_DATE":"2020-04-22","ECCENTRICITY":"0.00014000","SEMIMAJOR_AXIS":"6925.370","CENTER_NAME":"EARTH","MEAN_MOTION_DDOT":"0.0000000000000","TIME_SYSTEM":"UTC","EPOCH":"2022-07-18T14:59:20.366592","MEAN_MOTION_DOT":"-0.00000762"},{"TLE_LINE1":"1 45567U 20025AN  22199.63560996 -.00001959  00000-0 -11272-3 0  9995","OBJECT_TYPE":"PAYLOAD","OBJECT_NAME":"STARLINK-1361","TLE_LINE2":"2 45567  53.0550 297.4527 0001399  88.6513 271.4636 15.06384410124903","INCLINATION":"53.0550","FILE":"3517175","ARG_OF_PERICENTER":"88.6513","OBJECT_ID":"2020-025AN","MEAN_ELEMENT_THEORY":"SGP4","ELEMENT_SET_NO":"999","APOAPSIS":"548.230","MEAN_MOTION":"15.06384410","COUNTRY_CODE":"US","DECAY_DATE":null,"REV_AT_EPOCH":"12490","RCS_SIZE":"LARGE","REF_FRAME":"TEME","NORAD_CAT_ID":"45567","MEAN_ANOMALY":"271.4636","CLASSIFICATION_TYPE":"U","GP_ID":"208403503","BSTAR":"-0.00011272000000","LAUNCH_DATE":"2020-04-22","ECCENTRICITY":"0.00013990","SEMIMAJOR_AXIS":"6925.396","CENTER_NAME":"EARTH","MEAN_MOTION_DDOT":"0.0000000000000","EPOCH":"2022-07-18T15:15:16.700544","TIME_SYSTEM":"UTC","MEAN_MOTION_DOT":"-0.00001959","PERIAPSIS":"546.292","PERIOD":"95.593","RA_OF_ASC_NODE":"297.4527","EPHEMERIS_TYPE":"0","SITE":"AFETR"},{"SITE":"AFETR","EPHEMERIS_TYPE":"0","PERIAPSIS":"546.306","RA_OF_ASC_NODE":"297.6435","PERIOD":"95.592","MEAN_MOTION_DDOT":"0.0000000000000","MEAN_MOTION_DOT":"-0.00000339","EPOCH":"2022-07-18T15:36:32.031936","TIME_SYSTEM":"UTC","LAUNCH_DATE":"2020-04-22","ECCENTRICITY":"0.00013290","SEMIMAJOR_AXIS":"6925.361","CENTER_NAME":"EARTH","GP_ID":"208403753","CLASSIFICATION_TYPE":"U","BSTAR":"-0.00000388070000","NORAD_CAT_ID":"45568","MEAN_ANOMALY":"282.1761","DECAY_DATE":null,"REV_AT_EPOCH":"12489","REF_FRAME":"TEME","RCS_SIZE":"LARGE","COUNTRY_CODE":"US","MEAN_MOTION":"15.06395890","ELEMENT_SET_NO":"999","APOAPSIS":"548.147","INCLINATION":"53.0558","MEAN_ELEMENT_THEORY":"SGP4","OBJECT_ID":"2020-025AP","FILE":"3517175","ARG_OF_PERICENTER":"77.9377","TLE_LINE2":"2 45568  53.0558 297.6435 0001329  77.9377 282.1761 15.06395890124894","OBJECT_NAME":"STARLINK-1363","OBJECT_TYPE":"PAYLOAD","TLE_LINE1":"1 45568U 20025AP  22199.65037074 -.00000339  00000-0 -38807-5 0  9990"},{"BSTAR":"-0.00022961000000","CLASSIFICATION_TYPE":"U","GP_ID":"208405003","MEAN_ANOMALY":"284.5070","NORAD_CAT_ID":"45569","REF_FRAME":"TEME","RCS_SIZE":"LARGE","REV_AT_EPOCH":"12490","DECAY_DATE":null,"EPHEMERIS_TYPE":"0","SITE":"AFETR","PERIOD":"95.593","RA_OF_ASC_NODE":"297.1530","PERIAPSIS":"546.251","TIME_SYSTEM":"UTC","EPOCH":"2022-07-18T16:56:06.765504","MEAN_MOTION_DOT":"-0.00003699","MEAN_MOTION_DDOT":"0.0000000000000","CENTER_NAME":"EARTH","LAUNCH_DATE":"2020-04-22","SEMIMAJOR_AXIS":"6925.379","ECCENTRICITY":"0.00014350","TLE_LINE2":"2 45569  53.0541 297.1530 0001435  75.6078 284.5070 15.06389911124907","TLE_LINE1":"1 45569U 20025AQ  22199.70563386 -.00003699  00000-0 -22961-3 0  9991","OBJECT_TYPE":"PAYLOAD","OBJECT_NAME":"STARLINK-1366","COUNTRY_CODE":"US","MEAN_MOTION":"15.06389911","APOAPSIS":"548.238","ELEMENT_SET_NO":"999","ARG_OF_PERICENTER":"75.6078","FILE":"3517175","MEAN_ELEMENT_THEORY":"SGP4","OBJECT_ID":"2020-025AQ","INCLINATION":"53.0541"},{"TLE_LINE2":"2 45570  53.0552 296.8775 0001263  89.2575 270.8559 15.06389471124912","TLE_LINE1":"1 45570U 20025AR  22199.76461182 -.00002154  00000-0 -12582-3 0  9993","OBJECT_TYPE":"PAYLOAD","OBJECT_NAME":"STARLINK-1376","MEAN_MOTION":"15.06389471","COUNTRY_CODE":"US","INCLINATION":"53.0552","FILE":"3517175","ARG_OF_PERICENTER":"89.2575","MEAN_ELEMENT_THEORY":"SGP4","OBJECT_ID":"2020-025AR","ELEMENT_SET_NO":"999","APOAPSIS":"548.121","NORAD_CAT_ID":"45570","MEAN_ANOMALY":"270.8559","CLASSIFICATION_TYPE":"U","GP_ID":"208405241","BSTAR":"-0.00012582000000","REV_AT_EPOCH":"12491","DECAY_DATE":null,"REF_FRAME":"TEME","RCS_SIZE":"LARGE","PERIAPSIS":"546.371","PERIOD":"95.593","RA_OF_ASC_NODE":"296.8775","EPHEMERIS_TYPE":"0","SITE":"AFETR","LAUNCH_DATE":"2020-04-22","ECCENTRICITY":"0.00012630","SEMIMAJOR_AXIS":"6925.381","CENTER_NAME":"EARTH","MEAN_MOTION_DDOT":"0.0000000000000","EPOCH":"2022-07-18T18:21:02.461248","TIME_SYSTEM":"UTC","MEAN_MOTION_DOT":"-0.00002154"},{"TLE_LINE2":"2 45571  53.0523 288.0025 0001161  92.1820 267.9302 15.06389644125034","OBJECT_NAME":"STARLINK-1261","OBJECT_TYPE":"PAYLOAD","TLE_LINE1":"1 45571U 20025AS  22199.51488706 -.00002830  00000-0 -17120-3 0  9992","MEAN_MOTION":"15.06389644","COUNTRY_CODE":"US","OBJECT_ID":"2020-025AS","MEAN_ELEMENT_THEORY":"SGP4","ARG_OF_PERICENTER":"92.1820","FILE":"3516915","INCLINATION":"53.0523","APOAPSIS":"548.049","ELEMENT_SET_NO":"999","MEAN_ANOMALY":"267.9302","NORAD_CAT_ID":"45571","BSTAR":"-0.00017120000000","CLASSIFICATION_TYPE":"U","GP_ID":"208373317","REF_FRAME":"TEME","RCS_SIZE":"LARGE","REV_AT_EPOCH":"12503","DECAY_DATE":null,"RA_OF_ASC_NODE":"288.0025","PERIOD":"95.593","PERIAPSIS":"546.441","SITE":"AFETR","EPHEMERIS_TYPE":"0","CENTER_NAME":"EARTH","ECCENTRICITY":"0.00011610","LAUNCH_DATE":"2020-04-22","SEMIMAJOR_AXIS":"6925.380","MEAN_MOTION_DOT":"-0.00002830","EPOCH":"2022-07-18T12:21:26.241984","TIME_SYSTEM":"UTC","MEAN_MOTION_DDOT":"0.0000000000000"},{"APOAPSIS":"548.290","ELEMENT_SET_NO":"999","FILE":"3517175","ARG_OF_PERICENTER":"85.6162","OBJECT_ID":"2020-025AT","MEAN_ELEMENT_THEORY":"SGP4","INCLINATION":"53.0531","COUNTRY_CODE":"US","MEAN_MOTION":"15.06382645","TLE_LINE1":"1 45572U 20025AT  22199.57386429 -.00006143  00000-0 -39404-3 0  9998","OBJECT_TYPE":"PAYLOAD","OBJECT_NAME":"STARLINK-1320","TLE_LINE2":"2 45572  53.0531 287.7490 0001478  85.6162 274.4996 15.06382645125039","EPOCH":"2022-07-18T13:46:21.874656","TIME_SYSTEM":"UTC","MEAN_MOTION_DOT":"-0.00006143","MEAN_MOTION_DDOT":"0.0000000000000","CENTER_NAME":"EARTH","LAUNCH_DATE":"2020-04-22","ECCENTRICITY":"0.00014780","SEMIMAJOR_AXIS":"6925.402","EPHEMERIS_TYPE":"0","SITE":"AFETR","PERIOD":"95.593","RA_OF_ASC_NODE":"287.7490","PERIAPSIS":"546.243","REF_FRAME":"TEME","RCS_SIZE":"LARGE","DECAY_DATE":null,"REV_AT_EPOCH":"12503","BSTAR":"-0.00039404000000","GP_ID":"208404253","CLASSIFICATION_TYPE":"U","MEAN_ANOMALY":"274.4996","NORAD_CAT_ID":"45572"},{"MEAN_MOTION":"15.06382169","COUNTRY_CODE":"US","INCLINATION":"53.0554","ARG_OF_PERICENTER":"69.3183","FILE":"3516915","MEAN_ELEMENT_THEORY":"SGP4","OBJECT_ID":"2020-025AU","ELEMENT_SET_NO":"999","APOAPSIS":"548.238","TLE_LINE2":"2 45573  53.0554 288.7438 0001401  69.3183 290.7956 15.06382169124695","TLE_LINE1":"1 45573U 20025AU  22199.35271205 -.00002801  00000-0 -16928-3 0  9993","OBJECT_NAME":"STARLINK-1321","OBJECT_TYPE":"PAYLOAD","PERIAPSIS":"546.298","PERIOD":"95.593","RA_OF_ASC_NODE":"288.7438","EPHEMERIS_TYPE":"0","SITE":"AFETR","LAUNCH_DATE":"2020-04-22","SEMIMAJOR_AXIS":"6925.403","ECCENTRICITY":"0.00014010","CENTER_NAME":"EARTH","MEAN_MOTION_DDOT":"0.0000000000000","EPOCH":"2022-07-18T08:27:54.321120","TIME_SYSTEM":"UTC","MEAN_MOTION_DOT":"-0.00002801","NORAD_CAT_ID":"45573","MEAN_ANOMALY":"290.7956","CLASSIFICATION_TYPE":"U","GP_ID":"208374313","BSTAR":"-0.00016928000000","DECAY_DATE":null,"REV_AT_EPOCH":"12469","RCS_SIZE":"LARGE","REF_FRAME":"TEME"},{"OBJECT_NAME":"STARLINK-1324","OBJECT_TYPE":"PAYLOAD","TLE_LINE1":"1 45574U 20025AV  22199.71023686 -.00002349  00000-0 -13892-3 0  9996","TLE_LINE2":"2 45574  53.0527 287.1266 0001397  85.9787 274.1362 15.06388795125066","ELEMENT_SET_NO":"999","APOAPSIS":"548.215","INCLINATION":"53.0527","MEAN_ELEMENT_THEORY":"SGP4","OBJECT_ID":"2020-025AV","ARG_OF_PERICENTER":"85.9787","FILE":"3517175","COUNTRY_CODE":"US","MEAN_MOTION":"15.06388795","REV_AT_EPOCH":"12506","DECAY_DATE":null,"REF_FRAME":"TEME","RCS_SIZE":"LARGE","GP_ID":"208404742","CLASSIFICATION_TYPE":"U","BSTAR":"-0.00013892000000","NORAD_CAT_ID":"45574","MEAN_ANOMALY":"274.1362","MEAN_MOTION_DDOT":"0.0000000000000","MEAN_MOTION_DOT":"-0.00002349","TIME_SYSTEM":"UTC","EPOCH":"2022-07-18T17:02:44.464704","SEMIMAJOR_AXIS":"6925.383","LAUNCH_DATE":"2020-04-22","ECCENTRICITY":"0.00013970","CENTER_NAME":"EARTH","SITE":"AFETR","EPHEMERIS_TYPE":"0","PERIAPSIS":"546.280","RA_OF_ASC_NODE":"287.1266","PERIOD":"95.593"}];
